[{"OBJECT_NAME":"STARLINK-32098","OBJECT_ID":"2024-086Y","EPOCH":"2026-03-08T23:53:53.965536","MEAN_MOTION":15.27571772,"ECCENTRICITY":0.00014023,"INCLINATION":43.0009,"RA_OF_ASC_NODE":64.0121,"ARG_OF_PERICENTER":255.1283,"MEAN_ANOMALY":104.9413,"EPHEMERIS_TYPE":0,"CLASSIFICATION_TYPE":"U","NORAD_CAT_ID":59704,"ELEMENT_SET_NO":999,"REV_AT_EPOCH":10400,"BSTAR":-9.76559e-6,"MEAN_MOTION_DOT":-5.31e-6,"MEAN_MOTION_DDOT":0},{"OBJECT_NAME":"KSLV-II R\/B","OBJECT_ID":"2023-072H","EPOCH":"2026-03-09T20:13:26.441760","MEAN_MOTION":15.33109439,"ECCENTRICITY":0.00241884,"INCLINATION":97.4991,"RA_OF_ASC_NODE":274.152,"ARG_OF_PERICENTER":318.2938,"MEAN_ANOMALY":41.646,"EPHEMERIS_TYPE":0,"CLASSIFICATION_TYPE":"U","NORAD_CAT_ID":56750,"ELEMENT_SET_NO":999,"REV_AT_EPOCH":15516,"BSTAR":0.00028309532,"MEAN_MOTION_DOT":9.057e-5,"MEAN_MOTION_DDOT":0}]
